QIANFAN-41              
1 62242U 24232F   25325.06113963  .00000177  00000+0  25543-3 0  9991
2 62242  89.0043  43.3810 0012419 249.1404 110.8418 13.50977414 96326
QIANFAN-42              
1 62243U 24232G   25325.06666524  .00000602  00000+0  25335-3 0  9990
2 62243  89.0035  39.8293 0016454 149.2100 211.0061 14.24457905 98284
QIANFAN-43              
1 62244U 24232H   25325.05696127  .00000184  00000+0  26662-3 0  9991
2 62244  89.0048  43.4457 0013834 255.5197 104.4419 13.50978105 64933
QIANFAN-44              
1 62245U 24232J   25325.04468096  .00000171  00000+0  24585-3 0  9991
2 62245  89.0047  43.2581 0012102 251.7690 108.2145 13.50972783 96403
QIANFAN-45              
1 62246U 24232K   25325.01173470  .00000169  00000+0  24285-3 0  9992
2 62246  89.0050  43.4071 0012766 251.6933 108.2830 13.50976594 96325
QIANFAN-46              
1 62247U 24232L   25325.03645395  .00000172  00000+0  24851-3 0  9998
2 62247  89.0046  43.4746 0012717 257.8689 102.1038 13.50974699 96284
QIANFAN-47              
1 62248U 24232M   25325.04056227  .00000174  00000+0  25057-3 0  9991
2 62248  89.0042  43.4079 0013160 257.0343 102.9339 13.50977296 96314
QIANFAN-48              
1 62249U 24232N   25325.07757402  .00000169  00000+0  24264-3 0  9991
2 62249  89.0045  43.4052 0015376 260.2707  99.6708 13.50972438 96326
